{
  "person1": {
    "uid": 112233,
    "city": "isfahan",
    "postalCode": 2345672345,
    "phoneNumber": "03111234234",
    "position": "ui designer"
  },
  "person2": {
    "uid": 223344,
    "city": "abhar",
    "postalCode": 3345673232,
    "phoneNumber": "04111334452",
    "position": "analyzer"
  },
  "person3": {
    "uid": 334455,
    "city": "rasht",
    "postalCode": 9945643232,
    "phoneNumber": "01131394855",
    "position": "ui designer"
  },
  "person4": {
    "uid": 445566,
    "city": "mashad",
    "postalCode": 5545689232,
    "phoneNumber": "04121334415",
    "position": "ui designer"
  },
  "person5": {
    "uid": 556677,
    "city": "semnan",
    "postalCode": 774565392,
    "phoneNumber": "09331334225",
    "position": "analyzer"
  },
  "person6": {
    "uid": 667788,
    "city": "shiraz",
    "postalCode": 7845482232,
    "phoneNumber": "07771333455",
    "position": "php programmer"
  },
  "person7": {
    "uid": 778899,
    "city": "zahedan",
    "postalCode": 1145119212,
    "phoneNumber": "01221399450",
    "position": "ux designer"
  },
  "person8": {
    "uid": 889900,
    "city": "qom",
    "postalCode": 8845383233,
    "phoneNumber": "08121320452",
    "position": "node programmer"
  },
  "person9": {
    "uid": 990011,
    "city": "ahvaz",
    "postalCode": 2242689035,
    "phoneNumber": "02211783452",
    "position": "ux designer"
  },
  "person10": {
    "uid": 113344,
    "city": "arak",
    "postalCode": 1145129244,
    "phoneNumber": "01221334665",
    "position": "java programmer"
  }
}
